NORAD_CAT_ID,OBJECT_NAME,OBJECT_TYPE,EPOCH,MEAN_MOTION,ECCENTRICITY,INCLINATION,RA_OF_ASC_NODE,ARG_OF_PERICENTER,MEAN_ANOMALY,BSTAR,MEAN_MOTION_DOT,MEAN_MOTION_DDOT,TLE_LINE0,TLE_LINE1,TLE_LINE2,SEMIMAJOR_AXIS,PERIOD,APOGEE,PERIGEE,DECAYED
53922.0,STARLINK-5002,PAYLOAD,2022-12-28 10:36:08,15.08843752,0.0001306,53.2159,153.8384,94.9871,265.127,0.00010069,1.315e-05,0.0,0 STARLINK-5002,1 53922U 22119AN  22362.44176015  .00001315  00000-0  10069-3 0  9998,2 53922  53.2159 153.8384 0001306  94.9871 265.1270 15.08843752 15617,6917.869000000002,95.437,540.637,538.83,0.0
53922.0,STARLINK-5002,PAYLOAD,2022-12-28 13:46:54,15.08836249,0.0001238,53.2161,153.2435,93.0324,267.081,2.1662e-05,5.7e-07,0.0,0 STARLINK-5002,1 53922U 22119AN  22362.57424648  .00000057  00000-0  21662-4 0  9994,2 53922  53.2161 153.2435 0001238  93.0324 267.0810 15.08836249 15634,6917.892,95.438,540.613,538.9,0.0
53922.0,STARLINK-5002,PAYLOAD,2022-12-29 00:54:36,15.08839343,0.0001203,53.2162,151.1617,91.5257,268.5873,9.8901e-06,-1.3e-06,0.0,0 STARLINK-5002,1 53922U 22119AN  22363.03792427 -.00000130  00000-0  98901-5 0  9993,2 53922  53.2162 151.1617 0001203  91.5257 268.5873 15.08839343 15288,6917.882,95.438,540.58,538.915,0.0
53922.0,STARLINK-5002,PAYLOAD,2022-12-29 10:26:56,15.08836138,0.0001233,53.2163,149.3786,73.2908,286.822,-0.00013693,-2.466e-05,0.0,0 STARLINK-5002,1 53922U 22119AN  22363.43537279 -.00002466  00000-0 -13693-3 0  9997,2 53922  53.2163 149.3786 0001233  73.2908 286.8220 15.08836138 15343,6917.892,95.438,540.61,538.904,0.0
53922.0,STARLINK-5002,PAYLOAD,2022-12-29 12:02:19,15.08836237,0.0001211999999999,53.2161,149.0817,75.7419,284.3708,-0.00013876,-2.495e-05,0.0,0 STARLINK-5002,1 53922U 22119AN  22363.50161278 -.00002495  00000-0 -13876-3 0  9992,2 53922  53.2161 149.0817 0001212  75.7419 284.3708 15.08836237 15775,6917.892,95.438,540.595,538.918,0.0
53922.0,STARLINK-5002,PAYLOAD,2022-12-30 10:17:41,15.08871562,0.000137,53.2163,144.9173,76.7525,283.362,-0.0004409,-7.304e-05,0.0,0 STARLINK-5002,1 53922U 22119AN  22364.42895434 -.00007304  00000-0 -44090-3 0  9998,2 53922  53.2163 144.9173 0001370  76.7525 283.3620 15.08871562 15491,6917.784000000002,95.436,540.597,538.701,0.0
53922.0,STARLINK-5002,PAYLOAD,2022-12-30 16:39:14,15.08842658,0.0001262999999999,53.2163,143.7282,85.6711,274.4425,0.00020224,2.932e-05,0.0,0 STARLINK-5002,1 53922U 22119AN  22364.69392175  .00002932  00000-0  20224-3 0  9994,2 53922  53.2163 143.7282 0001263  85.6711 274.4425 15.08842658 15539,6917.871999999999,95.437,540.611,538.864,0.0
53922.0,STARLINK-5002,PAYLOAD,2022-12-31 02:11:32,15.08857387,0.0001302,53.2166,141.9443,86.6866,273.4275,0.00029437,4.402e-05,0.0,0 STARLINK-5002,1 53922U 22119AN  22365.09135234  .00004402  00000-0  29437-3 0  9999,2 53922  53.2166 141.9443 0001302  86.6866 273.4275 15.08857387 15590,6917.8269999999975,95.436,540.5930000000002,538.7919999999998,0.0
53922.0,STARLINK-5002,PAYLOAD,2022-12-31 10:08:28,15.08853499,0.0001341,53.2154,140.4574,87.3794,272.7351,0.00034175,5.157e-05,0.0,0 STARLINK-5002,1 53922U 22119AN  22365.42255745  .00005157  00000-0  34175-3 0  9999,2 53922  53.2154 140.4574 0001341  87.3794 272.7351 15.08853499 15640,6917.839,95.437,540.632,538.776,0.0
53922.0,STARLINK-5002,PAYLOAD,2022-12-31 16:30:01,15.08861262,0.0001351999999999,53.2151,139.2681,86.5573,273.5574,0.00036901,5.593e-05,0.0,0 STARLINK-5002,1 53922U 22119AN  22365.68751405  .00005593  00000-0  36901-3 0  9994,2 53922  53.2151 139.2681 0001352  86.5573 273.5574 15.08861262 16105,6917.815,95.436,540.616,538.745,0.0
53922.0,STARLINK-5002,PAYLOAD,2023-01-01 02:02:20,15.08847387,0.0001434,53.2141,137.4835,87.5175,272.5981,-0.00018512,-3.234e-05,0.0,0 STARLINK-5002,1 53922U 22119AN  23001.08495399 -.00003234  00000-0 -18512-3 0  9993,2 53922  53.2141 137.4835 0001434  87.5175 272.5981 15.08847387 15747,6917.858,95.437,540.715,538.731,0.0
53922.0,STARLINK-5002,PAYLOAD,2023-01-01 11:34:39,15.08825362,0.0001537,53.2149,135.69899999999998,83.0737,277.043,-0.00042194,-6.994e-05,0.0,0 STARLINK-5002,1 53922U 22119AN  23001.48240543 -.00006994  00000-0 -42194-3 0  9995,2 53922  53.2149 135.6990 0001537  83.0737 277.0430 15.08825362 16228,6917.925,95.438,540.8530000000002,538.727,0.0
53922.0,STARLINK-5002,PAYLOAD,2023-01-01 17:56:12,15.08827726,0.0001231999999999,53.2151,134.5101,87.9371,272.1762,-0.00029872,-5.037e-05,0.0,0 STARLINK-5002,1 53922U 22119AN  23001.74736505 -.00005037  00000-0 -29872-3 0  9997,2 53922  53.2151 134.5101 0001232  87.9371 272.1762 15.08827726 15849,6917.918000000002,95.438,540.635,538.931,0.0
53922.0,STARLINK-5002,PAYLOAD,2023-01-02 08:14:40,15.08835938,0.0001272,53.2153,131.8335,84.5242,275.5895,1.3319e-05,-7.6e-07,0.0,0 STARLINK-5002,1 53922U 22119AN  23002.34352589 -.00000076  00000-0  13319-4 0  9997,2 53922  53.2153 131.8335 0001272  84.5242 275.5895 15.08835938 15932,6917.893,95.438,540.638,538.878,0.0
53922.0,STARLINK-5002,PAYLOAD,2023-01-02 14:36:13,15.08842417,0.0001249,53.2153,130.644,84.8902,275.2232,0.00022462,3.289e-05,0.0,0 STARLINK-5002,1 53922U 22119AN  23002.60848459  .00003289  00000-0  22462-3 0  9998,2 53922  53.2153 130.6440 0001249  84.8902 275.2232 15.08842417 16399,6917.873000000001,95.437,540.602,538.874,0.0
53922.0,STARLINK-5002,PAYLOAD,2023-01-02 16:11:36,15.08846437,0.0001276,53.2152,130.3465,85.7717,274.3421,0.00035754,5.408e-05,0.0,0 STARLINK-5002,1 53922U 22119AN  23002.67472398  .00005408  00000-0  35754-3 0  9993,2 53922  53.2152 130.3465 0001276  85.7717 274.3421 15.08846437 15986,6917.861,95.437,540.6080000000002,538.8430000000002,0.0
53922.0,STARLINK-5002,PAYLOAD,2023-01-03 01:43:55,15.08845008,0.0001274999999999,53.2151,128.5623,83.5826,276.5311,0.00051819,7.97e-05,0.0,0 STARLINK-5002,1 53922U 22119AN  23003.07216728  .00007970  00000-0  51819-3 0  9997,2 53922  53.2151 128.5623 0001275  83.5826 276.5311 15.08845008 16049,6917.865,95.437,540.612,538.8480000000002,0.0
53922.0,STARLINK-5002,PAYLOAD,2023-01-03 14:27:00,15.08838665,0.0001264999999999,53.215,126.1834,84.1552,275.9584,0.00011401,1.527e-05,0.0,0 STARLINK-5002,1 53922U 22119AN  23003.60208941  .00001527  00000-0  11401-3 0  9999,2 53922  53.2150 126.1834 0001265  84.1552 275.9584 15.08838665 16549,6917.884,95.438,540.625,538.874,0.0
53922.0,STARLINK-5002,PAYLOAD,2023-01-03 17:37:46,15.08845979,0.0001314,53.2151,125.589,78.9123,281.2017,0.00033296,5.016e-05,0.0,0 STARLINK-5002,1 53922U 22119AN  23003.73456828  .00005016  00000-0  33296-3 0  9995,2 53922  53.2151 125.5890 0001314  78.9123 281.2017 15.08845979 16148,6917.861999999999,95.437,540.636,538.818,0.0
53922.0,STARLINK-5002,PAYLOAD,2023-01-04 14:17:47,15.08854969,0.0001368,53.2154,121.7231,74.8097,285.3047,0.00086947,0.00013582,0.0,0 STARLINK-5002,1 53922U 22119AN  23004.59568674  .00013582  00000-0  86947-3 0  9991,2 53922  53.2154 121.7231 0001368  74.8097 285.3047 15.08854969 16699,6917.835,95.437,540.646,538.753,0.0
53922.0,STARLINK-5002,PAYLOAD,2023-01-05 07:47:01,15.08865473,0.0001456,53.2153,118.453,73.5541,286.5611,0.00060546,9.368e-05,0.0,0 STARLINK-5002,1 53922U 22119AN  23005.32431732  .00009368  00000-0  60546-3 0  9991,2 53922  53.2153 118.4530 0001456  73.5541 286.5611 15.08865473 16389,6917.803000000001,95.436,540.675,538.66,0.0
53922.0,STARLINK-5002,PAYLOAD,2023-01-05 14:08:33,15.08869018,0.0001445,53.2157,117.2628,74.7234,285.3918,0.00053739,8.282e-05,0.0,0 STARLINK-5002,1 53922U 22119AN  23005.58927242  .00008282  00000-0  53739-3 0  9995,2 53922  53.2157 117.2628 0001445  74.7234 285.3918 15.08869018 16845,6917.792,95.436,540.656,538.6569999999998,0.0
53922.0,STARLINK-5002,PAYLOAD,2023-01-06 07:37:47,15.08827304,9.51e-05,53.2169,113.9914,54.8083,305.2998,-0.00073439,-0.00011952,0.0,0 STARLINK-5002,1 53922U 22119AN  23006.31791370 -.00011952  00000-0 -73439-3 0  9997,2 53922  53.2169 113.9914 0000951  54.8083 305.2998 15.08827304 16539,6917.919,95.438,540.442,539.126,0.0
53922.0,STARLINK-5002,PAYLOAD,2023-01-06 13:59:20,15.08811554,9.77e-05,53.2168,112.8011,32.296,327.8092,-0.00085293,-0.00013826,0.0,0 STARLINK-5002,1 53922U 22119AN  23006.58288107 -.00013826  00000-0 -85293-3 0  9998,2 53922  53.2168 112.8011 0000977  32.2960 327.8092 15.08811554 16575,6917.967,95.439,540.508,539.156,0.0
53922.0,STARLINK-5002,PAYLOAD,2023-01-06 23:31:40,15.08818839,0.0002442,53.2167,111.0206,87.2722,272.855,-0.00039351,-6.542e-05,0.0,0 STARLINK-5002,1 53922U 22119AN  23006.98032979 -.00006542  00000-0 -39351-3 0  9997,2 53922  53.2167 111.0206 0002442  87.2722 272.8550 15.08818839 16634,6917.945,95.439,541.499,538.121,0.0
53922.0,STARLINK-5002,PAYLOAD,2023-01-07 05:53:12,15.08837433,8.88e-05,53.2165,109.8301,54.5365,305.5709,0.00015786,2.225e-05,0.0,0 STARLINK-5002,1 53922U 22119AN  23007.24528165  .00002225  00000-0  15786-3 0  9992,2 53922  53.2165 109.8301 0000888  54.5365 305.5709 15.08837433 16670,6917.888000000001,95.438,540.368,539.139,0.0
53922.0,STARLINK-5002,PAYLOAD,2023-01-07 13:50:08,15.08837192,0.0001233,53.2167,108.3406,55.7577,304.3532,0.00026061,3.862e-05,0.0,0 STARLINK-5002,1 53922U 22119AN  23007.57648494  .00003862  00000-0  26061-3 0  9992,2 53922  53.2167 108.3406 0001233  55.7577 304.3532 15.08837192 17141,6917.889,95.438,540.607,538.901,0.0
53922.0,STARLINK-5002,PAYLOAD,2023-01-07 23:22:27,15.08827734,5.53e-05,53.2169,106.5594,25.7768,334.3251,0.00019228,2.773e-05,0.0,0 STARLINK-5002,1 53922U 22119AN  23007.97393126  .00002773  00000-0  19228-3 0  9992,2 53922  53.2169 106.5594 0000553  25.7768 334.3251 15.08827734 16785,6917.9180000000015,95.438,540.165,539.4,0.0
53922.0,STARLINK-5002,PAYLOAD,2023-01-08 15:16:19,15.08828083,6.78e-05,53.2181,103.5882,62.2879,297.8182,0.00019198,2.768e-05,0.0,0 STARLINK-5002,1 53922U 22119AN  23008.63633999  .00002768  00000-0  19198-3 0  9991,2 53922  53.2181 103.5882 0000678  62.2879 297.8182 15.08828083 17306,6917.917,95.438,540.251,539.313,0.0
